COSMOS 2251 DEB         
1 34411U 93036RC  17345.33065177  .00001553  00000-0  19445-3 0  9996
2 34411  74.0363 314.3122 0085186 170.7549 318.9145 14.80673572469806
